STARLINK-1357
1 25565C 20025AL  21325.11671294  .00000628  00000-0  42051-4 0  3253
2 25565  53.0532 292.7105 0001574  67.5379  37.0173 15.06396721    17
